0 FREGAT R/B
1 39192U 13031E   13280.28014261 -.00000016  00000-0  00000+0 0   314
2 39192 000.1281 063.2381 0010695 120.9215 175.8378 05.20986452  5399
0 FREGAT R/B
1 39192U 13031E   13289.49035061 -.00000027  00000-0  00000+0 0   331
2 39192 000.1315 057.6402 0010682 132.5382 169.8034 05.20986418  5875
0 FREGAT R/B
1 39192U 13031E   13293.51981690 -.00000028  00000-0  00000+0 0   349
2 39192 000.1330 055.2831 0010662 137.6724 167.0219 05.20986445  6085
